[{"OBJECT_NAME":"STARLINK-4314","OBJECT_ID":"2022-077P","EPOCH":"2026-03-09T22:04:53.908896","MEAN_MOTION":15.05644833,"ECCENTRICITY":0.00017052,"INCLINATION":97.6015,"RA_OF_ASC_NODE":251.4481,"ARG_OF_PERICENTER":83.7447,"MEAN_ANOMALY":276.3974,"EPHEMERIS_TYPE":0,"CLASSIFICATION_TYPE":"U","NORAD_CAT_ID":53056,"ELEMENT_SET_NO":999,"REV_AT_EPOCH":20101,"BSTAR":8.5638875e-5,"MEAN_MOTION_DOT":1.175e-5,"MEAN_MOTION_DDOT":0},{"OBJECT_NAME":"CZ-2C DEB","OBJECT_ID":"2014-014C","EPOCH":"2026-03-09T21:03:10.213920","MEAN_MOTION":14.96114302,"ECCENTRICITY":0.00460916,"INCLINATION":98.2261,"RA_OF_ASC_NODE":46.6653,"ARG_OF_PERICENTER":297.3827,"MEAN_ANOMALY":62.2706,"EPHEMERIS_TYPE":0,"CLASSIFICATION_TYPE":"U","NORAD_CAT_ID":39626,"ELEMENT_SET_NO":999,"REV_AT_EPOCH":63530,"BSTAR":0.002211971,"MEAN_MOTION_DOT":0.00025431,"MEAN_MOTION_DDOT":0}]
